{
  "type": "FeatureCollection",
  "features": [
    {
      "type": "Feature",
      "properties": {
        "norad_id": 40069,
        "name": "METEOR-M 2",
        "group": "weather",
        "lat": -56.78038526928769,
        "lon": -17.958222342164188,
        "alt_km": 828.8176460537443,
        "timestamp": "2025-12-17T10:52:53.991613+00:00",
        "meta_object_name": "METEOR-M 2",
        "meta_object_id": "2014-037A",
        "meta_epoch": "2025-12-16T23:19:37.285248",
        "meta_mean_motion": 14.21388653,
        "meta_eccentricity": 0.00051684,
        "meta_inclination": 98.4899,
        "meta_ra_of_asc_node": 328.3945,
        "meta_arg_of_pericenter": 196.3046,
        "meta_mean_anomaly": 163.7966,
        "meta_ephemeris_type": 0,
        "meta_classification_type": "U",
        "meta_norad_cat_id": 40069,
        "meta_element_set_no": 999,
        "meta_rev_at_epoch": 59343,
        "meta_bstar": 8.5827475e-05,
        "meta_mean_motion_dot": 1.46e-06,
        "meta_mean_motion_ddot": 0,
        "tle_line1": "1 40069U 14037A   25350.97195932  .00000146  00000+0  85827-4 0  9998",
        "tle_line2": "2 40069  98.4899 328.3945 0005168 196.3046 163.7966 14.21388653593434"
      },
      "geometry": {
        "type": "Point",
        "coordinates": [
          -17.958222342164188,
          -56.78038526928769
        ]
      }
    },
    {
      "type": "Feature",
      "properties": {
        "norad_id": 40267,
        "name": "HIMAWARI-8",
        "group": "weather",
        "lat": -0.004785109605541207,
        "lon": 30.222052419828945,
        "alt_km": 35786.710647129854,
        "timestamp": "2025-12-17T10:52:53.991631+00:00",
        "meta_object_name": "HIMAWARI-8",
        "meta_object_id": "2014-060A",
        "meta_epoch": "2025-12-16T16:44:38.561856",
        "meta_mean_motion": 1.00272573,
        "meta_eccentricity": 8.727e-05,
        "meta_inclination": 0.0192,
        "meta_ra_of_asc_node": 161.0568,
        "meta_arg_of_pericenter": 127.3774,
        "meta_mean_anomaly": 188.979,
        "meta_ephemeris_type": 0,
        "meta_classification_type": "U",
        "meta_norad_cat_id": 40267,
        "meta_element_set_no": 999,
        "meta_rev_at_epoch": 4093,
        "meta_bstar": 0,
        "meta_mean_motion_dot": -2.51e-06,
        "meta_mean_motion_ddot": 0,
        "tle_line1": "1 40267U 14060A   25350.69766854 -.00000251  00000+0  00000+0 0  9993",
        "tle_line2": "2 40267   0.0192 161.0568 0000872 127.3774 188.9790  1.00272573 40933"
      },
      "geometry": {
        "type": "Point",
        "coordinates": [
          30.222052419828945,
          -0.004785109605541207
        ]
      }
    },
    {
      "type": "Feature",
      "properties": {
        "norad_id": 40367,
        "name": "FENGYUN 2G",
        "group": "weather",
        "lat": -5.169695667927991,
        "lon": -11.016230344954986,
        "alt_km": 35785.10742659041,
        "timestamp": "2025-12-17T10:52:53.991644+00:00",
        "meta_object_name": "FENGYUN 2G",
        "meta_object_id": "2014-090A",
        "meta_epoch": "2025-12-16T18:57:58.838976",
        "meta_mean_motion": 1.00262837,
        "meta_eccentricity": 0.00028831,
        "meta_inclination": 5.1785,
        "meta_ra_of_asc_node": 75.0518,
        "meta_arg_of_pericenter": 204.4015,
        "meta_mean_anomaly": 190.125,
        "meta_ephemeris_type": 0,
        "meta_classification_type": "U",
        "meta_norad_cat_id": 40367,
        "meta_element_set_no": 999,
        "meta_rev_at_epoch": 4017,
        "meta_bstar": 0,
        "meta_mean_motion_dot": -2.79e-06,
        "meta_mean_motion_ddot": 0,
        "tle_line1": "1 40367U 14090A   25350.79026434 -.00000279  00000+0  00000+0 0  9991",
        "tle_line2": "2 40367   5.1785  75.0518 0002883 204.4015 190.1250  1.00262837 40170"
      },
      "geometry": {
        "type": "Point",
        "coordinates": [
          -11.016230344954986,
          -5.169695667927991
        ]
      }
    },
    {
      "type": "Feature",
      "properties": {
        "norad_id": 40732,
        "name": "METEOSAT-11 (MSG-4)",
        "group": "weather",
        "lat": -0.35082784565671826,
        "lon": -101.22407445277317,
        "alt_km": 35784.70884717756,
        "timestamp": "2025-12-17T10:52:53.991657+00:00",
        "meta_object_name": "METEOSAT-11 (MSG-4)",
        "meta_object_id": "2015-034A",
        "meta_epoch": "2025-12-16T18:32:16.300896",
        "meta_mean_motion": 1.00268751,
        "meta_eccentricity": 8.953e-05,
        "meta_inclination": 2.7459,
        "meta_ra_of_asc_node": 71.991,
        "meta_arg_of_pericenter": 132.5551,
        "meta_mean_anomaly": 168.4157,
        "meta_ephemeris_type": 0,
        "meta_classification_type": "U",
        "meta_norad_cat_id": 40732,
        "meta_element_set_no": 999,
        "meta_rev_at_epoch": 538,
        "meta_bstar": 0,
        "meta_mean_motion_dot": 8.3e-07,
        "meta_mean_motion_ddot": 0,
        "tle_line1": "1 40732U 15034A   25350.77241089  .00000083  00000+0  00000+0 0  9991",
        "tle_line2": "2 40732   2.7459  71.9910 0000895 132.5551 168.4157  1.00268751  5384"
      },
      "geometry": {
        "type": "Point",
        "coordinates": [
          -101.22407445277317,
          -0.35082784565671826
        ]
      }
    },
    {
      "type": "Feature",
      "properties": {
        "norad_id": 41105,
        "name": "ELEKTRO-L 2",
        "group": "weather",
        "lat": 1.8754870179255676,
        "lon": -124.87039448156045,
        "alt_km": 35774.77122248484,
        "timestamp": "2025-12-17T10:52:53.991670+00:00",
        "meta_object_name": "ELEKTRO-L 2",
        "meta_object_id": "2015-074A",
        "meta_epoch": "2025-12-16T01:18:12.753792",
        "meta_mean_motion": 1.00272542,
        "meta_eccentricity": 0.00037924,
        "meta_inclination": 6.234,
        "meta_ra_of_asc_node": 72.7892,
        "meta_arg_of_pericenter": 209.7128,
        "meta_mean_anomaly": 167.5089,
        "meta_ephemeris_type": 0,
        "meta_classification_type": "U",
        "meta_norad_cat_id": 41105,
        "meta_element_set_no": 999,
        "meta_rev_at_epoch": 3667,
        "meta_bstar": 0,
        "meta_mean_motion_dot": -9.9e-07,
        "meta_mean_motion_ddot": 0,
        "tle_line1": "1 41105U 15074A   25350.05431428 -.00000099  00000+0  00000+0 0  9997",
        "tle_line2": "2 41105   6.2340  72.7892 0003792 209.7128 167.5089  1.00272542 36674"
      },
      "geometry": {
        "type": "Point",
        "coordinates": [
          -124.87039448156045,
          1.8754870179255676
        ]
      }
    },
    {
      "type": "Feature",
      "properties": {
        "norad_id": 41752,
        "name": "INSAT-3DR",
        "group": "weather",
        "lat": -0.09248662281828145,
        "lon": -36.33779259576137,
        "alt_km": 35749.52554901297,
        "timestamp": "2025-12-17T10:52:53.991685+00:00",
        "meta_object_name": "INSAT-3DR",
        "meta_object_id": "2016-054A",
        "meta_epoch": "2025-12-16T17:08:01.866336",
        "meta_mean_motion": 1.00271563,
        "meta_eccentricity": 0.00141801,
        "meta_inclination": 0.1018,
        "meta_ra_of_asc_node": 86.686,
        "meta_arg_of_pericenter": 184.5714,
        "meta_mean_anomaly": 145.3416,
        "meta_ephemeris_type": 0,
        "meta_classification_type": "U",
        "meta_norad_cat_id": 41752,
        "meta_element_set_no": 999,
        "meta_rev_at_epoch": 3398,
        "meta_bstar": 0,
        "meta_mean_motion_dot": -5.3e-07,
        "meta_mean_motion_ddot": 0,
        "tle_line1": "1 41752U 16054A   25350.71391049 -.00000053  00000+0  00000+0 0  9991",
        "tle_line2": "2 41752   0.1018  86.6860 0014180 184.5714 145.3416  1.00271563 33981"
      },
      "geometry": {
        "type": "Point",
        "coordinates": [
          -36.33779259576137,
          -0.09248662281828145
        ]
      }
    },
    {
      "type": "Feature",
      "properties": {
        "norad_id": 41836,
        "name": "HIMAWARI-9",
        "group": "weather",
        "lat": 0.025231984032201796,
        "lon": 30.304148658217336,
        "alt_km": 35787.07047226721,
        "timestamp": "2025-12-17T10:52:53.991701+00:00",
        "meta_object_name": "HIMAWARI-9",
        "meta_object_id": "2016-064A",
        "meta_epoch": "2025-12-16T14:01:33.494016",
        "meta_mean_motion": 1.00269191,
        "meta_eccentricity": 9.983e-05,
        "meta_inclination": 0.0171,
        "meta_ra_of_asc_node": 275.3759,
        "meta_arg_of_pericenter": 22.8561,
        "meta_mean_anomaly": 138.3893,
        "meta_ephemeris_type": 0,
        "meta_classification_type": "U",
        "meta_norad_cat_id": 41836,
        "meta_element_set_no": 999,
        "meta_rev_at_epoch": 3337,
        "meta_bstar": 0,
        "meta_mean_motion_dot": -2.51e-06,
        "meta_mean_motion_ddot": 0,
        "tle_line1": "1 41836U 16064A   25350.58441544 -.00000251  00000+0  00000+0 0  9996",
        "tle_line2": "2 41836   0.0171 275.3759 0000998  22.8561 138.3893  1.00269191 33371"
      },
      "geometry": {
        "type": "Point",
        "coordinates": [
          30.304148658217336,
          0.025231984032201796
        ]
      }
    }
  ]
}